{
  "type": "FeatureCollection",
  "features": [
    {
      "type": "Feature",
      "properties": {
        "norad_id": 34728,
        "name": "COSMOS 2251 DEB",
        "group": "cosmos-2251-debris",
        "lat": 22.638499481513474,
        "lon": -124.92677120806957,
        "alt_km": 628.2815312008843,
        "timestamp": "2025-12-24T20:42:21.420504+00:00",
        "meta_object_name": "COSMOS 2251 DEB",
        "meta_object_id": "1993-036YW",
        "meta_epoch": "2025-12-20T02:20:18.568032",
        "meta_mean_motion": 14.70905998,
        "meta_eccentricity": 0.00414013,
        "meta_inclination": 74.0163,
        "meta_ra_of_asc_node": 237.4676,
        "meta_arg_of_pericenter": 33.08,
        "meta_mean_anomaly": 327.2947,
        "meta_ephemeris_type": 0,
        "meta_classification_type": "U",
        "meta_norad_cat_id": 34728,
        "meta_element_set_no": 999,
        "meta_rev_at_epoch": 88908,
        "meta_bstar": 0.00043281985,
        "meta_mean_motion_dot": 2.653e-05,
        "meta_mean_motion_ddot": 0,
        "tle_line1": "1 34728U 93036YW  25354.09743713  .00002653  00000+0  43282-3 0  9995",
        "tle_line2": "2 34728  74.0163 237.4676 0041401  33.0800 327.2947 14.70905998889085"
      },
      "geometry": {
        "type": "Point",
        "coordinates": [
          -124.92677120806957,
          22.638499481513474
        ]
      }
    },
    {
      "type": "Feature",
      "properties": {
        "norad_id": 34729,
        "name": "COSMOS 2251 DEB",
        "group": "cosmos-2251-debris",
        "lat": -22.70862430489545,
        "lon": 161.29954568536877,
        "alt_km": 628.2818928457673,
        "timestamp": "2025-12-24T20:42:21.420514+00:00",
        "meta_object_name": "COSMOS 2251 DEB",
        "meta_object_id": "1993-036YX",
        "meta_epoch": "2025-12-24T05:18:14.093280",
        "meta_mean_motion": 14.83114289,
        "meta_eccentricity": 0.00120023,
        "meta_inclination": 74.0186,
        "meta_ra_of_asc_node": 335.6824,
        "meta_arg_of_pericenter": 88.3709,
        "meta_mean_anomaly": 290.0343,
        "meta_ephemeris_type": 0,
        "meta_classification_type": "U",
        "meta_norad_cat_id": 34729,
        "meta_element_set_no": 999,
        "meta_rev_at_epoch": 88628,
        "meta_bstar": 0.0022211559,
        "meta_mean_motion_dot": 0.00018141,
        "meta_mean_motion_ddot": 0,
        "tle_line1": "1 34729U 93036YX  25358.22099645  .00018141  00000+0  22212-2 0  9991",
        "tle_line2": "2 34729  74.0186 335.6824 0012002  88.3709 290.0343 14.83114289886288"
      },
      "geometry": {
        "type": "Point",
        "coordinates": [
          161.29954568536877,
          -22.70862430489545
        ]
      }
    },
    {
      "type": "Feature",
      "properties": {
        "norad_id": 34732,
        "name": "COSMOS 2251 DEB",
        "group": "cosmos-2251-debris",
        "lat": -42.76060876135543,
        "lon": 55.19499855203007,
        "alt_km": 743.5976480551717,
        "timestamp": "2025-12-24T20:42:21.420524+00:00",
        "meta_object_name": "COSMOS 2251 DEB",
        "meta_object_id": "1993-036ZA",
        "meta_epoch": "2025-12-22T16:32:23.959680",
        "meta_mean_motion": 14.47311087,
        "meta_eccentricity": 0.00401751,
        "meta_inclination": 74.0456,
        "meta_ra_of_asc_node": 74.5946,
        "meta_arg_of_pericenter": 223.757,
        "meta_mean_anomaly": 290.4905,
        "meta_ephemeris_type": 0,
        "meta_classification_type": "U",
        "meta_norad_cat_id": 34732,
        "meta_element_set_no": 999,
        "meta_rev_at_epoch": 88287,
        "meta_bstar": 0.00012395205,
        "meta_mean_motion_dot": 4.3e-06,
        "meta_mean_motion_ddot": 0,
        "tle_line1": "1 34732U 93036ZA  25356.68916620  .00000430  00000+0  12395-3 0  9998",
        "tle_line2": "2 34732  74.0456  74.5946 0040175 223.7570 290.4905 14.47311087882873"
      },
      "geometry": {
        "type": "Point",
        "coordinates": [
          55.19499855203007,
          -42.76060876135543
        ]
      }
    },
    {
      "type": "Feature",
      "properties": {
        "norad_id": 34736,
        "name": "COSMOS 2251 DEB",
        "group": "cosmos-2251-debris",
        "lat": 5.270074628823273,
        "lon": 10.970483258600906,
        "alt_km": 385.375990461308,
        "timestamp": "2025-12-24T20:42:21.420534+00:00",
        "meta_object_name": "COSMOS 2251 DEB",
        "meta_object_id": "1993-036ZE",
        "meta_epoch": "2025-12-24T02:11:47.071392",
        "meta_mean_motion": 15.58131671,
        "meta_eccentricity": 0.00117758,
        "meta_inclination": 73.9978,
        "meta_ra_of_asc_node": 11.1707,
        "meta_arg_of_pericenter": 338.3861,
        "meta_mean_anomaly": 21.6858,
        "meta_ephemeris_type": 0,
        "meta_classification_type": "U",
        "meta_norad_cat_id": 34736,
        "meta_element_set_no": 999,
        "meta_rev_at_epoch": 88624,
        "meta_bstar": 0.0082483738,
        "meta_mean_motion_dot": 0.00677638,
        "meta_mean_motion_ddot": 0,
        "tle_line1": "1 34736U 93036ZE  25358.09151703  .00677638  00000+0  82484-2 0  9997",
        "tle_line2": "2 34736  73.9978  11.1707 0011775 338.3861  21.6858 15.58131671886244"
      },
      "geometry": {
        "type": "Point",
        "coordinates": [
          10.970483258600906,
          5.270074628823273
        ]
      }
    },
    {
      "type": "Feature",
      "properties": {
        "norad_id": 34738,
        "name": "COSMOS 2251 DEB",
        "group": "cosmos-2251-debris",
        "lat": -52.78079697324107,
        "lon": 98.43792204951474,
        "alt_km": 718.1161069284944,
        "timestamp": "2025-12-24T20:42:21.420544+00:00",
        "meta_object_name": "COSMOS 2251 DEB",
        "meta_object_id": "1993-036ZG",
        "meta_epoch": "2025-12-23T18:44:43.283328",
        "meta_mean_motion": 14.4632643,
        "meta_eccentricity": 0.00475663,
        "meta_inclination": 74.0156,
        "meta_ra_of_asc_node": 122.6297,
        "meta_arg_of_pericenter": 266.8783,
        "meta_mean_anomaly": 167.0667,
        "meta_ephemeris_type": 0,
        "meta_classification_type": "U",
        "meta_norad_cat_id": 34738,
        "meta_element_set_no": 999,
        "meta_rev_at_epoch": 88018,
        "meta_bstar": 0.00030074639,
        "meta_mean_motion_dot": 1.066e-05,
        "meta_mean_motion_ddot": 0,
        "tle_line1": "1 34738U 93036ZG  25357.78105652  .00001066  00000+0  30075-3 0  9992",
        "tle_line2": "2 34738  74.0156 122.6297 0047566 266.8783 167.0667 14.46326430880188"
      },
      "geometry": {
        "type": "Point",
        "coordinates": [
          98.43792204951474,
          -52.78079697324107
        ]
      }
    },
    {
      "type": "Feature",
      "properties": {
        "norad_id": 34750,
        "name": "COSMOS 2251 DEB",
        "group": "cosmos-2251-debris",
        "lat": 35.95722944645334,
        "lon": -169.40176796838568,
        "alt_km": 685.5805301665059,
        "timestamp": "2025-12-24T20:42:21.420553+00:00",
        "meta_object_name": "COSMOS 2251 DEB",
        "meta_object_id": "1993-036ZU",
        "meta_epoch": "2025-12-23T22:04:25.116096",
        "meta_mean_motion": 14.61427791,
        "meta_eccentricity": 0.0038348,
        "meta_inclination": 74.1068,
        "meta_ra_of_asc_node": 180.4654,
        "meta_arg_of_pericenter": 129.7082,
        "meta_mean_anomaly": 349.1592,
        "meta_ephemeris_type": 0,
        "meta_classification_type": "U",
        "meta_norad_cat_id": 34750,
        "meta_element_set_no": 999,
        "meta_rev_at_epoch": 88394,
        "meta_bstar": 0.0011786,
        "meta_mean_motion_dot": 5.872e-05,
        "meta_mean_motion_ddot": 0,
        "tle_line1": "1 34750U 93036ZU  25357.91973514  .00005872  00000+0  11786-2 0  9997",
        "tle_line2": "2 34750  74.1068 180.4654 0038348 129.7082 349.1592 14.61427791883947"
      },
      "geometry": {
        "type": "Point",
        "coordinates": [
          -169.40176796838568,
          35.95722944645334
        ]
      }
    },
    {
      "type": "Feature",
      "properties": {
        "norad_id": 34752,
        "name": "COSMOS 2251 DEB",
        "group": "cosmos-2251-debris",
        "lat": 61.01095220092351,
        "lon": 7.086361396522318,
        "alt_km": 532.9450851514284,
        "timestamp": "2025-12-24T20:42:21.420563+00:00",
        "meta_object_name": "COSMOS 2251 DEB",
        "meta_object_id": "1993-036ZW",
        "meta_epoch": "2025-12-23T23:36:35.362368",
        "meta_mean_motion": 15.0017716,
        "meta_eccentricity": 0.0047465,
        "meta_inclination": 74.0139,
        "meta_ra_of_asc_node": 337.7159,
        "meta_arg_of_pericenter": 102.5373,
        "meta_mean_anomaly": 258.1129,
        "meta_ephemeris_type": 0,
        "meta_classification_type": "U",
        "meta_norad_cat_id": 34752,
        "meta_element_set_no": 999,
        "meta_rev_at_epoch": 90018,
        "meta_bstar": 0.00097369,
        "meta_mean_motion_dot": 0.00012441,
        "meta_mean_motion_ddot": 0,
        "tle_line1": "1 34752U 93036ZW  25357.98374262  .00012441  00000+0  97369-3 0  9993",
        "tle_line2": "2 34752  74.0139 337.7159 0047465 102.5373 258.1129 15.00177160900183"
      },
      "geometry": {
        "type": "Point",
        "coordinates": [
          7.086361396522318,
          61.01095220092351
        ]
      }
    }
  ]
}